     2.12           N                                       RINEX VERSION / TYPE
RDE                 MCS                 20130422 235005 UTC PGM / RUN BY / DATE
GPSA   1.3970D-08  7.1148D-09 -1.2078D-08 -3.8447D-09       IONOSPHERIC CORR
GPSB   1.0445D+05  3.1291D+04 -1.9921D+04 -1.2682D+04       IONOSPHERIC CORR
GPUT -3.7252902985D-09-1.154631946D-14 405504 1737          TIME SYSTEM CORR
    16                                                      LEAP SECONDS
                                                            END OF HEADER
 2 13  4 22 10  0  0.0 4.285313189030D-04 1.932676241267D-12 0.000000000000D+00
    2.000000000000D+01-2.684375000000D+01 5.076282876129D-09-8.841045772701D-01
   -1.305714249611D-06 1.228759344667D-02 1.063756644726D-05 5.153647468567D+03
    1.224000000000D+05 2.533197402954D-07-8.578357633885D-01 9.499490261078D-08
    9.387399417837D-01 1.617500000000D+02-2.616393870347D+00-8.274630385855D-09
   -1.835790753768D-10 1.000000000000D+00 1.737000000000D+03 0.000000000000D+00
    2.000000000000D+00 0.000000000000D+00-1.769512891769D-08 2.000000000000D+01
    1.152180000000D+05 4.000000000000D+00
 3 13  4 22 10  0  0.0 1.973100006580D-04 4.888534022029D-12 0.000000000000D+00
    5.100000000000D+01-1.709375000000D+01 5.733095949316D-09-7.069020432504D-01
   -6.314367055893D-07 1.612615783233D-02 3.980472683907D-06 5.153680772781D+03
    1.224000000000D+05-1.359730958939D-07-2.027448927729D+00 2.309679985046D-07
    9.338299571489D-01 2.922500000000D+02 1.280708763712D+00-9.091450123961D-09
    6.857428496565D-11 1.000000000000D+00 1.737000000000D+03 0.000000000000D+00
    2.828427124746D+00 0.000000000000D+00-4.656612873077D-09 5.100000000000D+01
    1.170300000000D+05 4.000000000000D+00
10 13  4 22 10  0  0.0-7.741944864392D-05-1.250555214938D-12 0.000000000000D+00
    3.600000000000D+01 7.881250000000D+01 5.118070331030D-09 1.534211727059D+00
    4.177913069725D-06 1.236343430355D-02 8.160248398781D-06 5.153631820679D+03
    1.224000000000D+05-3.166496753693D-07 2.264279426270D-01 1.378357410431D-07
    9.441824373769D-01 2.165625000000D+02 7.995553014876D-01-8.508925859488D-09
    2.600108304947D-10 1.000000000000D+00 1.737000000000D+03 0.000000000000D+00
    2.000000000000D+00 0.000000000000D+00-2.793967723846D-09 3.600000000000D+01
    1.152180000000D+05 4.000000000000D+00
11 13  4 22 10  0  0.0-3.747702576220D-04-3.637978807092D-12 0.000000000000D+00
    1.600000000000D+01-7.609375000000D+01 6.153827760199D-09-2.060248674587D+00
   -3.969296813011D-06 1.391036144923D-02 8.871778845787D-06 5.153689201355D+03
    1.224000000000D+05 2.235174179077D-07-1.131311656151D+00-7.823109626770D-08
    8.886393000109D-01 1.631562500000D+02 1.157400989003D+00-8.658217792381D-09
   -2.364384200378D-10 1.000000000000D+00 1.737000000000D+03 0.000000000000D+00
    2.000000000000D+00 0.000000000000D+00-1.164153218269D-08 1.600000000000D+01
    1.170300000000D+05 4.000000000000D+00
16 13  4 22 10  0  0.0-2.524564042687D-04 1.136868377216D-13 0.000000000000D+00
    5.400000000000D+01 5.496875000000D+01 3.976237054805D-09 1.525300880916D+00
    2.983957529068D-06 7.137950160541D-03 8.413568139076D-06 5.153624160767D+03
    1.224000000000D+05 3.725290298462D-09-2.883007198308D+00 4.842877388000D-08
    9.846471596036D-01 2.288750000000D+02 7.241862594360D-02-7.895328872139D-09
    4.550189533658D-10 1.000000000000D+00 1.737000000000D+03 0.000000000000D+00
    2.000000000000D+00 0.000000000000D+00-1.024454832077D-08 5.400000000000D+01
    1.170300000000D+05 4.000000000000D+00
 1 13  4 22 10  0  0.0 1.860363408923D-05 3.637978807092D-12 0.000000000000D+00
    7.800000000000D+01-3.443750000000D+01 4.463043046514D-09-1.653948904948D+00
   -1.845881342888D-06 1.775578013621D-03 1.189112663269D-05 5.153704549789D+03
    1.224000000000D+05-1.862645149231D-09-8.369686633329D-01-4.842877388000D-08
    9.602422949973D-01 1.500000000000D+02 2.837552036803D-01-7.932116118761D-09
   -1.942938074027D-10 1.000000000000D+00 1.737000000000D+03 0.000000000000D+00
    2.000000000000D+00 0.000000000000D+00 8.381903171539D-09 7.800000000000D+01
    1.170300000000D+05 4.000000000000D+00
15 13  4 22 10  0  0.0-1.162309199572D-04-1.477928890381D-12 0.000000000000D+00
    2.000000000000D+01-2.221875000000D+01 5.363080536688D-09-2.004208023652D-01
   -1.281499862671D-06 5.381461349316D-03 3.516674041748D-06 5.153739894867D+03
    1.224000000000D+05 5.029141902924D-08 1.228172960208D+00 3.352761268616D-08
    9.410900845680D-01 2.997187500000D+02 1.688133322786D-01-8.756079011551D-09
   -3.157274370293D-10 1.000000000000D+00 1.737000000000D+03 0.000000000000D+00
    2.000000000000D+00 0.000000000000D+00-1.024454832077D-08 2.000000000000D+01
    1.152180000000D+05 4.000000000000D+00
13 13  4 22 10  0  0.0 1.262286677957D-04-3.524291969370D-12 0.000000000000D+00
    4.400000000000D+01-3.428125000000D+01 4.360895934534D-09 1.765931423275D-01
   -1.920387148857D-06 5.175720201805D-03 4.326924681664D-06 5.153759950638D+03
    1.224000000000D+05 3.725290298462D-09 1.355982300620D+00-1.210719347000D-07
    9.816878738232D-01 3.087812500000D+02 2.088608702067D+00-8.232128615486D-09
   -3.800158291846D-10 1.000000000000D+00 1.737000000000D+03 0.000000000000D+00
    2.000000000000D+00 0.000000000000D+00-1.117587089539D-08 4.400000000000D+01
    1.152180000000D+05 4.000000000000D+00
12 13  4 22 10  0  0.0 1.297490671277D-04 2.046363078989D-12 0.000000000000D+00
    9.900000000000D+01 5.184375000000D+01 3.945878647398D-09-2.557881765608D+00
    2.704560756683D-06 4.491998697631D-03 8.163973689079D-06 5.153585371017D+03
    1.224000000000D+05 7.450580596924D-09-2.901359368098D+00 2.421438694000D-08
    9.839477706541D-01 2.354687500000D+02 2.168704705999D-01-7.814254066476D-09
    5.707380592453D-10 1.000000000000D+00 1.737000000000D+03 0.000000000000D+00
    2.000000000000D+00 0.000000000000D+00-1.210719347000D-08 9.900000000000D+01
    1.170300000000D+05 4.000000000000D+00
18 13  4 22 10  0  0.0 2.500796690583D-04 1.818989403546D-12 0.000000000000D+00
    7.700000000000D+01 8.800000000000D+01 5.419868616426D-09 1.970302029845D+00
    4.325062036514D-06 1.413685339503D-02 8.106231689453D-06 5.153599809647D+03
    1.224000000000D+05-1.545995473862D-07 2.101322523718D-01-3.259629011154D-07
    9.279692937373D-01 2.070625000000D+02-2.114245356863D+00-8.513926067766D-09
    3.546576300567D-10 1.000000000000D+00 1.737000000000D+03 0.000000000000D+00
    2.000000000000D+00 0.000000000000D+00-1.117587089539D-08 7.700000000000D+01
    1.152960000000D+05 4.000000000000D+00
 8 13  4 22  9 59 44.0 5.736015737057D-06 2.273736754432D-13 0.000000000000D+00
    4.500000000000D+01-3.921875000000D+01 3.330853029113D-09-2.809308418103D+00
   -2.050772309303D-06 1.285081077367D-02 1.179240643978D-05 5.153733922958D+03
    1.223840000000D+05-1.303851604462D-07 2.414239834825D+00-1.043081283569D-07
    9.982564831494D-01 1.718437500000D+02-2.879290884605D+00-7.322447866488D-09
   -1.060758470562D-10 1.000000000000D+00 1.737000000000D+03 0.000000000000D+00
    2.000000000000D+00 0.000000000000D+00-4.190951585770D-09 4.500000000000D+01
    1.152180000000D+05 4.000000000000D+00
14 13  4 22  9 59 44.0 2.210773527622D-04 0.000000000000D+00 0.000000000000D+00
    1.800000000000D+01-2.962500000000D+01 4.612692137142D-09 3.211417297564D-01
   -1.469627022743D-06 6.785101257265D-03 4.304572939873D-06 5.153729974747D+03
    1.223840000000D+05-6.519258022308D-08 1.326961917770D+00 9.126961231232D-08
    9.743912495238D-01 3.050625000000D+02-2.032392977874D+00-8.435708523977D-09
   -4.078741324519D-10 1.000000000000D+00 1.737000000000D+03 0.000000000000D+00
    2.000000000000D+00 0.000000000000D+00-8.847564458847D-09 1.800000000000D+01
    1.179300000000D+05 4.000000000000D+00
23 13  4 22  9 59 44.0 9.282026439905D-05-3.637978807092D-12 0.000000000000D+00
    8.000000000000D+00-2.496875000000D+01 5.003422698353D-09-6.718776324802D-01
   -1.449137926102D-06 8.400152553804D-03 3.434717655182D-06 5.153717863083D+03
    1.223840000000D+05 2.346932888031D-07 1.268848826864D+00 0.000000000000D+00
    9.559846708845D-01 3.098125000000D+02-2.905363314901D+00-8.570356989769D-09
   -3.303709041314D-10 1.000000000000D+00 1.737000000000D+03 0.000000000000D+00
    2.000000000000D+00 0.000000000000D+00-2.002343535423D-08 8.000000000000D+00
    1.179300000000D+05 4.000000000000D+00
21 13  4 22  9 59 44.0-2.933400683105D-04-2.160049916711D-12 0.000000000000D+00
    6.000000000000D+00-3.056250000000D+01 4.941634410337D-09 3.052143346867D+00
   -1.778826117516D-06 2.026505535468D-02 1.247599720955D-05 5.153711481094D+03
    1.223840000000D+05 8.940696716309D-08-8.374745155351D-01-3.203749656677D-07
    9.315838556355D-01 1.209687500000D+02-2.146938383847D+00-7.921044229001D-09
   -2.371527355062D-10 1.000000000000D+00 1.737000000000D+03 0.000000000000D+00
    2.000000000000D+00 0.000000000000D+00-1.117587089539D-08 6.000000000000D+00
    1.179300000000D+05 4.000000000000D+00
20 13  4 22  9 59 44.0 9.423261508346D-05 1.932676241267D-12 0.000000000000D+00
    2.000000000000D+00 8.371875000000D+01 5.318792977648D-09 2.518585026936D+00
    4.252418875694D-06 5.469044554047D-03 8.337199687958D-06 5.153759960175D+03
    1.223840000000D+05-2.421438694000D-08 1.566801574432D-01-1.341104507446D-07
    9.287083438588D-01 1.970000000000D+02 1.296243303542D+00-8.398206961887D-09
    2.800116636097D-10 1.000000000000D+00 1.737000000000D+03 0.000000000000D+00
    2.000000000000D+00 0.000000000000D+00-7.916241884232D-09 2.000000000000D+00
    1.179300000000D+05 4.000000000000D+00
